# From MPC106342
C/1995 O1 (Hale-Bopp),e,89.0587,283.2117,130.7769,182.5849,0.0003995,0.99490758,0.0000,03/29.4380/1997,2000,g -2.0,4.0
# From NK 1615
P/1996 R2 (Lagerkvist),e,2.6009,40.0502,333.2900,3.772718,0.1345001,0.31341949,350.6571,12/04.0/2018,2000,g 11.5,4.0
# From MPC 30063
P/1997 B1 (Kobayashi),e,12.3484,328.9371,183.4155,8.554314,0.0393937,0.76036042,312.3141,12/04.0/2018,2000,g 15.0,2.0
# From MPC 75703
P/1998 VS24 (LINEAR),e,5.0224,159.0417,244.8980,4.533858,0.1020945,0.24162364,32.5852,12/04.0/2018,2000,g 13.0,2.0
# From NK 1780
P/1999 D1 (Hermann),e,21.3217,348.7770,174.1117,5.761486,0.0712693,0.71303622,155.1866,12/04.0/2018,2000,g 15.0,4.0
# From CCO 17
P/1999 R1 (SOHO),e,11.4845,352.1428,56.3256,2.510459,0.2477846,0.97987651,0.0000,08/31.4168/2019,2000,g 27.0,6.0
# From NK 731
P/1999 RO28 (LONEOS),e,7.5638,137.8954,231.2532,3.427739,0.1553075,0.67192004,328.3179,12/04.0/2018,2000,g 20.0,2.0
# From MPC 75704
P/1999 XN120 (Catalina),e,5.0297,285.2957,161.9938,4.179567,0.1153472,0.21107798,62.2611,12/04.0/2018,2000,g 13.5,2.0
# From NK 744
P/2000 R2 (LINEAR),e,11.6827,160.3234,176.4381,3.465666,0.1527650,0.53158011,330.1699,12/04.0/2018,2000,g 18.0,4.0
# From MPC 73461
P/2000 S4 (LINEAR-Spacewatch),e,28.3739,173.8130,173.0467,7.118338,0.0518963,0.68170317,344.6106,12/04.0/2018,2000,g 17.5,2.0
# From MPC 75704
P/2001 BB50 (LINEAR-NEAT),e,10.3576,351.1996,193.6500,5.738089,0.0717056,0.58681797,111.3362,12/04.0/2018,2000,g 13.0,4.0
# From MPC 43019
P/2001 H5 (NEAT),e,8.3753,328.6988,224.8312,6.096403,0.0654777,0.59972373,74.6078,12/04.0/2018,2000,g 12.0,4.0
# From MPC 75704
P/2001 Q6 (NEAT),e,56.8671,22.0299,43.0495,7.938857,0.0440623,0.82261117,275.6469,12/04.0/2018,2000,g 13.5,4.0
# From MPC 47727
P/2002 EJ57 (LINEAR),e,4.9768,330.4312,167.0300,6.460856,0.0600163,0.59335516,10.1079,12/04.0/2018,2000,g 12.5,4.0
# From MPC109588
P/2002 T5 (LINEAR),e,30.8594,123.1031,326.9081,6.991481,0.0533151,0.43718480,300.8846,12/04.0/2018,2000,g  8.0,4.0
# From MPC109588
P/2002 T6 (NEAT-LINEAR),e,10.8667,207.4014,218.8820,7.648882,0.0465916,0.55928095,263.9279,12/04.0/2018,2000,g 10.5,4.0
# From MPC 75007
C/2002 VQ94 (LINEAR),e,70.4537,34.9069,100.2067,189.9061,0.0003766,0.96405120,1.7660,12/04.0/2018,2000,g  9.5,2.0
# From MPC 50354
P/2003 F2 (NEAT),e,11.6043,359.0961,191.7862,6.489535,0.0596189,0.54229130,339.5612,12/04.0/2018,2000,g 16.5,2.0
# From MPC 75704
P/2003 L1 (Scotti),e,9.0206,226.0642,354.8046,6.718874,0.0565926,0.25312869,326.9689,12/04.0/2018,2000,g  8.5,4.0
# From MPC 50139
P/2003 QX29 (NEAT),e,11.3897,264.6018,37.1751,8.047203,0.0431754,0.47199261,254.8035,12/04.0/2018,2000,g  8.5,4.0
# From MPC 99268
P/2003 T12 (SOHO),e,11.0521,174.9310,219.4846,2.585681,0.2370509,0.77086301,236.8853,12/04.0/2018,2000,g 17.0,4.0
# From MPC 75705
P/2003 U3 (NEAT),e,7.0094,347.9885,356.8385,5.054809,0.0867255,0.50917224,131.0196,12/04.0/2018,2000,g 13.5,4.0
# From MPC 82312
P/2004 A1 (LONEOS),e,10.5555,124.8806,21.6970,7.940968,0.0440447,0.31061496,229.0935,12/04.0/2018,2000,g  6.5,4.0
# From MPC 54558
P/2004 DO29 (Spacewatch-LINEAR),e,14.5320,147.4427,40.7492,7.278837,0.0501893,0.44233079,259.2157,12/04.0/2018,2000,g 13.5,2.0
# From MPC 54823
P/2004 FY140 (LINEAR),e,2.1359,326.7788,242.3607,4.896493,0.0909654,0.16983437,111.5058,12/04.0/2018,2000,g 12.5,2.0
# From MPC 53304
P/2004 R3 (LINEAR-NEAT),e,12.7814,305.7902,40.7731,4.742645,0.0954274,0.26062522,260.6352,12/04.0/2018,2000,g 14.5,4.0
# From MPC 55521
P/2004 V3 (Siding Spring),e,50.3870,356.0975,322.2039,7.149380,0.0515586,0.44564371,266.4401,12/04.0/2018,2000,g 11.5,4.0
# From MPC 75705
P/2004 V5 (LINEAR-Hill),e,19.3529,47.7183,88.0348,7.963203,0.0438604,0.44456022,220.4854,12/04.0/2018,2000,g  8.0,4.0
# From MPC 75705
P/2004 WR9 (LINEAR),e,4.9305,24.8860,72.0407,6.144366,0.0647125,0.68270719,328.6351,12/04.0/2018,2000,g 14.5,4.0
# From MPC 54164
P/2005 E1 (Tubbiolo),e,4.2649,335.6329,194.2161,7.031672,0.0528587,0.37602580,266.9410,12/04.0/2018,2000,g 10.0,4.0
# From MPC 54823
P/2005 GF8 (LONEOS),e,1.1924,314.9078,285.3930,5.854872,0.0695710,0.51647114,339.0798,12/04.0/2018,2000,g 11.5,4.0
# From MPC 79019
P/2005 J1 (McNaught),e,31.7694,268.7958,338.9200,3.569058,0.1461752,0.57035334,7.6184,12/04.0/2018,2000,g 16.5,4.0
# From MPC 75705
P/2005 JD108 (Catalina-NEAT),e,3.2820,223.8082,90.0338,6.506636,0.0593840,0.37543327,293.1219,12/04.0/2018,2000,g 10.0,4.0
# From MPC 74246
P/2005 L1 (McNaught),e,7.7362,138.2385,149.4861,3.978507,0.1242007,0.20884348,227.8446,12/04.0/2018,2000,g  9.5,4.0
# From MPC 87062
C/2005 L3 (McNaught),e,139.5454,288.7770,47.1925,3422,0.0000049,0.99835931,0.0000,01/10.7692/2008,2000,g  4.0,4.0
# From MPC 75706
P/2005 S2 (Skiff),e,3.1355,161.1751,229.5681,8.018815,0.0434049,0.19574904,198.8224,12/04.0/2018,2000,g  7.5,4.0
# From MPC 75706
P/2005 SB216 (LONEOS),e,24.0541,1.3401,83.5055,7.118773,0.0518915,0.46265711,224.5909,12/04.0/2018,2000,g 12.0,2.0
# From MPC 55717
P/2005 T2 (Christensen),e,8.2931,260.1705,59.0176,3.844795,0.1307357,0.41714844,295.6975,12/04.0/2018,2000,g 14.5,4.0
# From MPC 73461
P/2005 T3 (Read),e,6.2384,27.9124,8.0845,7.560199,0.0474137,0.17217265,225.0289,12/04.0/2018,2000,g  9.0,4.0
# From MPC 73461
P/2005 T4 (SWAN),e,160.0867,25.4246,41.3344,9.356905,0.0344355,0.93078802,165.7509,12/04.0/2018,2000,g 15.0,4.0
# From MPC 75706
P/2005 T5 (Broughton),e,21.3362,57.0261,304.4847,7.293954,0.0500333,0.55068813,240.5045,12/04.0/2018,2000,g 11.0,4.0
# From MPC 56954
P/2005 W3 (Kowalski),e,16.4113,210.2349,200.2915,6.343695,0.0616866,0.54278472,296.9678,12/04.0/2018,2000,g 12.0,4.0
# From MPC 75706
P/2005 XA54 (LONEOS-Hill),e,17.1217,143.7064,15.1647,6.049056,0.0662480,0.71039520,307.8520,12/04.0/2018,2000,g 14.0,4.0
# From MPC 75706
P/2005 Y2 (McNaught),e,19.1096,94.5186,194.3125,6.340277,0.0617365,0.46699293,317.4913,12/04.0/2018,2000,g  9.0,4.0
# From MPC 75707
P/2006 F1 (Kowalski),e,21.2783,124.7439,186.2431,4.671234,0.0976240,0.12047869,25.7099,12/04.0/2018,2000,g  8.0,4.0
# From MPC 56954
P/2006 F4 (Spacewatch),e,12.3884,184.0322,31.1622,3.525786,0.1488744,0.33802227,324.0038,12/04.0/2018,2000,g 15.0,4.0
# From MPC 58118
P/2006 H1 (McNaught),e,12.8139,0.0049,309.2812,5.776486,0.0709919,0.58097094,333.8209,12/04.0/2018,2000,g 12.5,4.0
# From MPC 75707
P/2006 HR30 (Siding Spring),e,31.8610,309.8085,117.4117,7.809812,0.0451589,0.84153711,197.1013,12/04.0/2018,2000,g 11.0,4.0
# From MPC 73914
C/2006 K4 (NEAT),e,111.5031,116.6946,233.6783,1111,0.0000266,0.99711934,0.0000,11/24.8886/2007,2000,g  6.0,4.0
# From MPC 82313
C/2006 OF2 (Broughton),h,09/09.7537/2008,30.1554,318.6145,95.7304,1.001565,2.451911,2000,5.5,4.0
# From MPC112388
C/2006 Q1 (McNaught),e,59.1191,199.3747,344.5422,2732,0.0000069,0.99898320,0.0000,07/03.6326/2008,2000,g  5.0,4.0
# From MPC 73461
P/2006 R1 (Siding Spring),e,160.0708,218.8344,249.2821,5.635770,0.0736672,0.70487114,330.7651,12/04.0/2018,2000,g 16.0,4.0
# From MPC 69905
P/2006 S1 (Christensen),e,12.3311,207.9104,133.6340,3.543599,0.1477533,0.59979967,311.9174,12/04.0/2018,2000,g 17.5,4.0
# From MPC105235
C/2006 S3 (LONEOS),h,04/12.7092/2012,166.0226,38.3493,140.1395,1.000012,5.150729,2000,2.0,4.0
# From MPC 75707
P/2006 S4 (Christensen),e,39.5732,36.1111,305.3129,6.292205,0.0624453,0.50674728,288.8562,12/04.0/2018,2000,g 11.0,4.0
# From MPC 60465
C/2006 S5 (Hill),e,10.1017,281.5435,182.2572,96.46336,0.0010403,0.97246120,0.0000,12/03.2692/2007,2000,g  8.0,4.0
# From MPC 66204
C/2006 U6 (Spacewatch),e,84.7911,180.1084,276.7067,2082,0.0000104,0.99879045,0.0000,05/30.6923/2008,2000,g  8.0,4.0
# From MPC 62580
C/2006 V1 (Catalina),e,31.3513,335.4428,253.1582,159.4940,0.0004893,0.98335771,0.0000,11/28.3060/2007,2000,g  8.0,4.0
# From MPC105235
P/2006 W1 (Gibbs),e,18.5296,152.3826,232.1350,5.823064,0.0701418,0.70769654,325.8645,12/04.0/2018,2000,g 12.0,4.0
# From MPC 82313
C/2006 W3 (Christensen),e,127.0750,113.3703,133.1769,3359,0.0000051,0.99907357,0.0000,07/04.5571/2009,2000,g  5.0,4.0
# From MPC 75707
P/2007 A2 (Christensen),e,26.4963,300.9291,186.8830,6.313951,0.0621230,0.55766931,269.5024,12/04.0/2018,2000,g 13.5,4.0
# From MPC 59319
P/2007 B1 (Christensen),e,12.3778,77.6653,46.8545,5.811862,0.0703447,0.58081051,304.8637,12/04.0/2018,2000,g 13.5,4.0
# From MPC112388
C/2007 B2 (Skiff),e,27.5616,14.7166,206.2107,693.6253,0.0000540,0.99571056,0.0000,08/24.3302/2008,2000,g  6.0,4.0
# From MPC 75707
P/2007 C2 (Catalina),e,8.7182,275.8280,179.4776,7.016150,0.0530342,0.46529464,217.7485,12/04.0/2018,2000,g 10.0,4.0
# From MPC 84315
C/2007 D1 (LINEAR),e,41.4955,171.0380,340.3014,2266,0.0000091,0.99610039,0.0000,06/15.0308/2007,2000,g  3.5,4.0
# From MPC 66464
C/2007 G1 (LINEAR),e,88.6451,79.0301,223.8915,9201,0.0000011,0.99971255,0.0000,11/15.7152/2008,2000,g  5.5,4.0
# From MPC 82314
P/2007 K2 (Gibbs),e,7.6541,188.6492,347.5352,7.254690,0.0504401,0.68479048,211.3729,12/04.0/2018,2000,g 14.0,4.0
# From MPC 82314
C/2007 K3 (Siding Spring),e,16.4156,263.1823,23.3015,1781,0.0000131,0.99886379,0.0000,04/24.2597/2008,2000,g  9.5,4.0
# From MPC 87475
C/2007 M1 (McNaught),e,139.7518,326.8706,52.6710,1142,0.0000255,0.99344418,0.0000,08/05.5575/2008,2000,g  6.0,4.0
# From MPC112388
C/2007 M2 (Catalina),e,80.9901,357.2388,220.7435,1832,0.0000126,0.99806525,0.0000,12/11.4771/2008,2000,g  8.0,4.0
# From MPC 73461
C/2007 N3 (Lulin),e,178.3762,338.2346,136.7191,1785,0.0000131,0.99931121,0.0000,01/09.6751/2009,2000,g  6.5,4.0
# From MPC 60925
P/2007 Q2 (Gilmore),e,10.2078,172.2364,162.8733,5.639799,0.0735883,0.66991433,306.6942,12/04.0/2018,2000,g 16.0,4.0
# From MPC 78183
C/2007 Q3 (Siding Spring),h,10/06.5058/2009,65.5503,149.4252,2.2851,1.000575,2.270830,2000,4.5,4.0
# From MPC 75514
P/2007 R1 (Larson),e,7.7513,180.6406,174.9814,6.066847,0.0659568,0.28815368,276.4952,12/04.0/2018,2000,g  8.0,4.0
# From MPC 75708
P/2007 R2 (Gibbs),e,1.2225,11.7205,352.3425,3.568486,0.1462103,0.54410524,264.7010,12/04.0/2018,2000,g 17.0,4.0
# From MPC 75708
